NORAD_CAT_ID,OBJECT_NAME,OBJECT_TYPE,EPOCH,MEAN_MOTION,ECCENTRICITY,INCLINATION,RA_OF_ASC_NODE,ARG_OF_PERICENTER,MEAN_ANOMALY,BSTAR,MEAN_MOTION_DOT,MEAN_MOTION_DDOT,TLE_LINE0,TLE_LINE1,TLE_LINE2,SEMIMAJOR_AXIS,PERIOD,APOGEE,PERIGEE,DECAYED
53919.0,STARLINK-5023,PAYLOAD,2023-02-03 06:46:29,15.08858577,0.0001459,53.2183,348.5724,92.2411,267.8748,0.0001306,1.792e-05,0.0,0 STARLINK-5023,1 53919U 22119AK  23034.28228878  .00001792  00000-0  13060-3 0  9991,2 53919  53.2183 348.5724 0001459  92.2411 267.8748 15.08858577 21179,6917.824,95.436,540.698,538.679,0.0
53919.0,STARLINK-5023,PAYLOAD,2023-02-04 06:37:18,15.08833908,0.0001306,53.2181,344.1124,90.3997,269.7144,5.7175e-05,6.22e-06,0.0,0 STARLINK-5023,1 53919U 22119AK  23035.27591039  .00000622  00000-0  57175-4 0  9990,2 53919  53.2181 344.1124 0001306  90.3997 269.7144 15.08833908 20904,6917.899,95.438,540.667,538.861,0.0
53919.0,STARLINK-5023,PAYLOAD,2023-02-05 06:28:05,15.08844974,0.0001345,53.2184,339.653,85.1232,274.9914,-4.8153e-05,-1.054e-05,0.0,0 STARLINK-5023,1 53919U 22119AK  23036.26950900 -.00001054  00000-0 -48153-4 0  9994,2 53919  53.2184 339.6530 0001345  85.1232 274.9914 15.08844974 21475,6917.865,95.437,540.661,538.8,0.0
53919.0,STARLINK-5023,PAYLOAD,2023-02-06 06:18:52,15.08846032,0.000118,53.2172,335.192,96.1665,263.9461,0.00025934,3.843e-05,0.0,0 STARLINK-5023,1 53919U 22119AK  23037.26310998  .00003843  00000-0  25934-3 0  9999,2 53919  53.2172 335.1920 0001180  96.1665 263.9461 15.08846032 21624,6917.862,95.437,540.543,538.911,0.0
53919.0,STARLINK-5023,PAYLOAD,2023-02-07 02:58:53,15.08850749,0.0001358,53.2179,331.326,76.1642,283.9502,0.00020438,2.967e-05,0.0,0 STARLINK-5023,1 53919U 22119AK  23038.12422861  .00002967  00000-0  20438-3 0  9998,2 53919  53.2179 331.3260 0001358  76.1642 283.9502 15.08850749 21332,6917.848,95.437,540.652,538.773,0.0
53919.0,STARLINK-5023,PAYLOAD,2023-02-07 04:34:16,15.08856757,0.000138,53.2179,331.0287,81.9317,278.1831,0.00029214,4.367e-05,0.0,0 STARLINK-5023,1 53919U 22119AK  23038.19046544  .00004367  00000-0  29214-3 0  9992,2 53919  53.2179 331.0287 0001380  81.9317 278.1831 15.08856757 21769,6917.829,95.436,540.649,538.74,0.0
53919.0,STARLINK-5023,PAYLOAD,2023-02-08 02:49:39,15.08861743,0.0001245,53.2181,326.8677,94.8872,265.2263,0.00025341,3.75e-05,0.0,0 STARLINK-5023,1 53919U 22119AK  23039.11782086  .00003750  00000-0  25341-3 0  9995,2 53919  53.2181 326.8677 0001245  94.8872 265.2263 15.08861743 21909,6917.814,95.436,540.54,538.818,0.0
53919.0,STARLINK-5023,PAYLOAD,2023-02-09 01:05:04,15.08846412,0.0001362,53.2182,322.7044,85.93,274.1848,-2.1474e-06,-3.22e-06,0.0,0 STARLINK-5023,1 53919U 22119AK  23040.04518785 -.00000322  00000-0 -21474-5 0  9991,2 53919  53.2182 322.7044 0001362  85.9300 274.1848 15.08846412 21623,6917.861,95.437,540.668,538.784,0.0
53919.0,STARLINK-5023,PAYLOAD,2023-02-09 04:15:50,15.0884706,0.0001356,53.2185,322.1099,96.7211,263.3935,6.6606e-05,7.72e-06,0.0,0 STARLINK-5023,1 53919U 22119AK  23040.17766913  .00000772  00000-0  66606-4 0  9995,2 53919  53.2185 322.1099 0001356  96.7211 263.3935 15.08847060 22060,6917.859,95.437,540.662,538.786,0.0
53919.0,STARLINK-5023,PAYLOAD,2023-02-10 00:55:51,15.08836199,0.0001244,53.2176,318.2427,100.1082,260.0051,2.1982e-05,6.2e-07,0.0,0 STARLINK-5023,1 53919U 22119AK  23041.03879423  .00000062  00000-0  21982-4 0  9992,2 53919  53.2176 318.2427 0001244 100.1082 260.0051 15.08836199 21774,6917.892,95.438,540.618,538.896,0.0
53919.0,STARLINK-5023,PAYLOAD,2023-02-10 04:06:37,15.08848225,0.0001275,53.2177,317.6475,92.4115,267.7024,0.00031931,4.799e-05,0.0,0 STARLINK-5023,1 53919U 22119AK  23041.17127199  .00004799  00000-0  31931-3 0  9998,2 53919  53.2177 317.6475 0001275  92.4115 267.7024 15.08848225 21794,6917.855,95.437,540.602,538.838,0.0
53919.0,STARLINK-5023,PAYLOAD,2023-02-11 00:46:38,15.08852081,0.0001056,53.2163,313.7828,91.8417,268.2696,0.00026293,3.901e-05,0.0,0 STARLINK-5023,1 53919U 22119AK  23042.03238845  .00003901  00000-0  26293-3 0  9994,2 53919  53.2163 313.7828 0001056  91.8417 268.2696 15.08852081 21924,6917.843,95.437,540.439,538.978,0.0
53919.0,STARLINK-5023,PAYLOAD,2023-02-11 18:15:53,15.08846429,0.0001297,53.2168,310.511,95.6696,264.4444,4.5962e-05,4.44e-06,0.0,0 STARLINK-5023,1 53919U 22119AK  23042.76103112  .00000444  00000-0  45962-4 0  9996,2 53919  53.2168 310.5110 0001297  95.6696 264.4444 15.08846429 22037,6917.861,95.437,540.623,538.828,0.0
53919.0,STARLINK-5023,PAYLOAD,2023-02-12 03:48:11,15.08850183,0.0001344,53.2158,308.7286,89.9756,270.139,0.00015099,2.117e-05,0.0,0 STARLINK-5023,1 53919U 22119AK  23043.15846935  .00002117  00000-0  15099-3 0  9993,2 53919  53.2158 308.7286 0001344  89.9756 270.1390 15.08850183 22514,6917.849,95.437,540.644,538.785,0.0
53919.0,STARLINK-5023,PAYLOAD,2023-02-13 02:03:34,15.08866242,0.0001203,53.2167,304.5647,112.1193,247.9927,0.00040862,6.226e-05,0.0,0 STARLINK-5023,1 53919U 22119AK  23044.08581762  .00006226  00000-0  40862-3 0  9991,2 53919  53.2167 304.5647 0001203 112.1193 247.9927 15.08866242 22237,6917.8,95.436,540.497,538.833,0.0
53919.0,STARLINK-5023,PAYLOAD,2023-02-13 10:00:31,15.08833844,5.84e-05,53.2165,303.0782,107.5233,252.5823,-0.00018363,-3.208e-05,0.0,0 STARLINK-5023,1 53919U 22119AK  23044.41702623 -.00003208  00000-0 -18363-3 0  9999,2 53919  53.2165 303.0782 0000584 107.5233 252.5823 15.08833844 22287,6917.899,95.438,540.168,539.36,0.0
53919.0,STARLINK-5023,PAYLOAD,2023-02-14 01:54:23,15.08826663,0.000151,53.2191,300.106,106.9991,253.1166,-0.00014534,-2.599e-05,0.0,0 STARLINK-5023,1 53919U 22119AK  23045.07944025 -.00002599  00000-0 -14534-3 0  9994,2 53919  53.2191 300.1060 0001510 106.9991 253.1166 15.08826663 22386,6917.921,95.438,540.831,538.742,0.0
53919.0,STARLINK-5023,PAYLOAD,2023-02-14 09:51:19,15.08818767,8.15e-05,53.2167,298.6176,107.5714,252.5367,-8.2332e-05,-1.597e-05,0.0,0 STARLINK-5023,1 53919U 22119AK  23045.41064358 -.00001597  00000-0 -82332-4 0  9993,2 53919  53.2167 298.6176 0000815 107.5714 252.5367 15.08818767 22859,6917.945,95.439,540.374,539.246,0.0
53919.0,STARLINK-5023,PAYLOAD,2023-02-14 20:59:01,15.08837311,9.31e-05,53.2152,296.5361,92.363,267.7468,0.00078179,0.00012175,0.0,0 STARLINK-5023,1 53919U 22119AK  23045.87432703  .00012175  00000-0  78179-3 0  9991,2 53919  53.2152 296.5361 0000931  92.3630 267.7468 15.08837311 22927,6917.889,95.438,540.398,539.11,0.0
53919.0,STARLINK-5023,PAYLOAD,2023-02-15 01:45:11,15.08861878,0.0001084,53.216,295.6445,86.987,273.1246,0.0023451,0.00037254,0.0,0 STARLINK-5023,1 53919U 22119AK  23046.07304700  .00037254  00000-0  23451-2 0  9996,2 53919  53.2160 295.6445 0001084  86.9870 273.1246 15.08861878 22531,6917.814,95.436,540.428,538.929,0.0
53919.0,STARLINK-5023,PAYLOAD,2023-02-15 04:55:57,15.08857729,0.0002382,53.2159,295.0494,60.3594,299.7636,0.0020246,0.00032097,0.0,0 STARLINK-5023,1 53919U 22119AK  23046.20553112  .00032097  00000-0  20246-2 0  9993,2 53919  53.2159 295.0494 0002382  60.3594 299.7636 15.08857729 22557,6917.826,95.436,541.339,538.043,0.0
53919.0,STARLINK-5023,PAYLOAD,2023-02-15 09:42:06,15.0884646,9e-06,53.2158,294.1575,8.4918,351.6076,0.00034975,5.284e-05,0.0,0 STARLINK-5023,1 53919U 22119AK  23046.40424383  .00005284  00000-0  34975-3 0  9995,2 53919  53.2158 294.1575 0000090   8.4918 351.6076 15.08846460 22582,6917.861,95.437,539.788,539.663,0.0
53919.0,STARLINK-5023,PAYLOAD,2023-02-15 20:49:48,15.088697,0.0001014,53.2155,292.0759,75.6456,284.4648,0.002723,0.00043351,0.0,0 STARLINK-5023,1 53919U 22119AK  23046.86792731  .00043351  00000-0  27230-2 0  9992,2 53919  53.2155 292.0759 0001014  75.6456 284.4648 15.08869700 23075,6917.79,95.436,540.356,538.953,0.0
53919.0,STARLINK-5023,PAYLOAD,2023-02-16 00:00:35,15.08879033,9.24e-05,53.2156,291.481,77.6863,282.4233,0.0033577,0.00053614,0.0,0 STARLINK-5023,1 53919U 22119AK  23047.00040523  .00053614  00000-0  33577-2 0  9998,2 53919  53.2156 291.4810 0000924  77.6863 282.4233 15.08879033 22673,6917.761,95.435,540.265,538.987,0.0
53919.0,STARLINK-5023,PAYLOAD,2023-02-16 09:32:53,15.08872346,0.000119,53.216,289.6966,77.6195,282.493,0.0018491,0.00029289,0.0,0 STARLINK-5023,1 53919U 22119AK  23047.39784387  .00029289  00000-0  18491-2 0  9992,2 53919  53.2160 289.6966 0001190  77.6195 282.4930 15.08872346 22734,6917.782,95.436,540.47,538.823,0.0
53919.0,STARLINK-5023,PAYLOAD,2023-02-16 17:29:49,15.08848434,0.0001058,53.2158,288.2107,89.7091,270.4023,0.0012014,0.00018888,0.0,0 STARLINK-5023,1 53919U 22119AK  23047.72904522  .00018888  00000-0  12014-2 0  9992,2 53919  53.2158 288.2107 0001058  89.7091 270.4023 15.08848434 22781,6917.855,95.437,540.452,538.988,0.0
53919.0,STARLINK-5023,PAYLOAD,2023-02-16 22:15:59,15.08852588,0.0001046,53.2158,287.3187,86.2856,273.8256,0.0022278,0.00035358,0.0,0 STARLINK-5023,1 53919U 22119AK  23047.92776642  .00035358  00000-0  22278-2 0  9998,2 53919  53.2158 287.3187 0001046  86.2856 273.8256 15.08852588 23238,6917.842,95.437,540.431,538.983,0.0
53919.0,STARLINK-5023,PAYLOAD,2023-02-17 09:23:41,15.08844806,0.0001296,53.2159,285.2364,90.7745,269.3396,0.00099389,0.00015567,0.0,0 STARLINK-5023,1 53919U 22119AK  23048.39144896  .00015567  00000-0  99389-3 0  9998,2 53919  53.2159 285.2364 0001296  90.7745 269.3396 15.08844806 22886,6917.866,95.437,540.627,538.834,0.0
53919.0,STARLINK-5023,PAYLOAD,2023-02-17 18:56:00,15.088307,0.000102,53.2164,283.4541,86.2308,273.88,0.00097485,0.00015257,0.0,0 STARLINK-5023,1 53919U 22119AK  23048.78889414  .00015257  00000-0  97485-3 0  9994,2 53919  53.2164 283.4541 0001020  86.2308 273.8800 15.08830700 22944,6917.909,95.438,540.479,539.068,0.0
53919.0,STARLINK-5023,PAYLOAD,2023-02-17 22:06:46,15.08838305,0.0001216,53.2161,282.8588,92.9337,267.1794,0.0015608,0.00024638,0.0,0 STARLINK-5023,1 53919U 22119AK  23048.92137534  .00024638  00000-0  15608-2 0  9998,2 53919  53.2161 282.8588 0001216  92.9337 267.1794 15.08838305 23384,6917.886,95.438,540.592,538.909,0.0
